{"type": "FeatureCollection", "features": [ {"type": "Feature", "properties": {"norad_id": 36684, "name": "FENGYUN 1C DEB", "group": "fengyun-1c-debris", "lat": 67.963850186915, "lon": 57.880652204804676, "alt_km": 558.860363109663, "timestamp": "2025-12-15T11:38:37.442023+00:00", "meta": {"OBJECT_NAME": "FENGYUN 1C DEB", "OBJECT_ID": "1999-025DZE", "EPOCH": "2025-12-14T12:52:10.183872", "MEAN_MOTION": 14.96632196, "ECCENTRICITY": 0.00192468, "INCLINATION": 99.4551, "RA_OF_ASC_NODE": 81.0489, "ARG_OF_PERICENTER": 103.5298, "MEAN_ANOMALY": 256.8063, "EPHEMERIS_TYPE": 0, "CLASSIFICATION_TYPE": "U", "NORAD_CAT_ID": 36684, "ELEMENT_SET_NO": 999, "REV_AT_EPOCH": 65928, "BSTAR": 0.003779143, "MEAN_MOTION_DOT": 0.00043416, "MEAN_MOTION_DDOT": 0}, "tle": {"line1": "1 36684U 99025DZE 25348.53622898  .00043416  00000+0  37791-2 0  9993", "line2": "2 36684  99.4551  81.0489 0019246 103.5298 256.8063 14.96632196659289"}}, "geometry": {"type": "Point", "coordinates": [57.880652204804676, 67.963850186915]}}, {"type": "Feature", "properties": {"norad_id": 36686, "name": "FENGYUN 1C DEB", "group": "fengyun-1c-debris", "lat": 57.224944123981395, "lon": 15.460780170438325, "alt_km": 614.8835687469636, "timestamp": "2025-12-15T11:38:37.442033+00:00", "meta": {"OBJECT_NAME": "FENGYUN 1C DEB", "OBJECT_ID": "1999-025DZG", "EPOCH": "2025-12-14T18:50:54.350592", "MEAN_MOTION": 14.77241014, "ECCENTRICITY": 0.01050818, "INCLINATION": 99.002, "RA_OF_ASC_NODE": 180.4264, "ARG_OF_PERICENTER": 47.0188, "MEAN_ANOMALY": 313.9769, "EPHEMERIS_TYPE": 0, "CLASSIFICATION_TYPE": "U", "NORAD_CAT_ID": 36686, "ELEMENT_SET_NO": 999, "REV_AT_EPOCH": 65882, "BSTAR": 0.00059450442, "MEAN_MOTION_DOT": 4.55e-05, "MEAN_MOTION_DDOT": 0}, "tle": {"line1": "1 36686U 99025DZG 25348.78535128  .00004550  00000+0  59450-3 0  9994", "line2": "2 36686  99.0020 180.4264 0105081  47.0188 313.9769 14.77241014658827"}}, "geometry": {"type": "Point", "coordinates": [15.460780170438325, 57.224944123981395]}}, {"type": "Feature", "properties": {"norad_id": 36687, "name": "FENGYUN 1C DEB", "group": "fengyun-1c-debris", "lat": -75.35977355971303, "lon": 111.77129233775109, "alt_km": 825.5009736243655, "timestamp": "2025-12-15T11:38:37.442043+00:00", "meta": {"OBJECT_NAME": "FENGYUN 1C DEB", "OBJECT_ID": "1999-025DZH", "EPOCH": "2025-12-09T12:23:51.138240", "MEAN_MOTION": 14.04528107, "ECCENTRICITY": 0.00903007, "INCLINATION": 98.7162, "RA_OF_ASC_NODE": 70.0789, "ARG_OF_PERICENTER": 274.4984, "MEAN_ANOMALY": 84.5872, "EPHEMERIS_TYPE": 0, "CLASSIFICATION_TYPE": "U", "NORAD_CAT_ID": 36687, "ELEMENT_SET_NO": 999, "REV_AT_EPOCH": 62677, "BSTAR": 0.00041265981, "MEAN_MOTION_DOT": 6.4e-06, "MEAN_MOTION_DDOT": 0}, "tle": {"line1": "1 36687U 99025DZH 25343.51656410  .00000640  00000+0  41266-3 0  9991", "line2": "2 36687  98.7162  70.0789 0090300 274.4984  84.5872 14.04528107626770"}}, "geometry": {"type": "Point", "coordinates": [111.77129233775109, -75.35977355971303]}}, {"type": "Feature", "properties": {"norad_id": 36689, "name": "FENGYUN 1C DEB", "group": "fengyun-1c-debris", "lat": 39.988213963372125, "lon": 70.21131911978405, "alt_km": 1177.3473322756836, "timestamp": "2025-12-15T11:38:37.442053+00:00", "meta": {"OBJECT_NAME": "FENGYUN 1C DEB", "OBJECT_ID": "1999-025DZK", "EPOCH": "2025-11-28T10:04:14.213280", "MEAN_MOTION": 13.74189275, "ECCENTRICITY": 0.03131537, "INCLINATION": 98.4796, "RA_OF_ASC_NODE": 227.8431, "ARG_OF_PERICENTER": 334.7216, "MEAN_ANOMALY": 23.8887, "EPHEMERIS_TYPE": 0, "CLASSIFICATION_TYPE": "U", "NORAD_CAT_ID": 36689, "ELEMENT_SET_NO": 999, "REV_AT_EPOCH": 58016, "BSTAR": 0.0027905602, "MEAN_MOTION_DOT": 3.71e-05, "MEAN_MOTION_DDOT": 0}, "tle": {"line1": "1 36689U 99025DZK 25332.41960895  .00003710  00000+0  27906-2 0  9990", "line2": "2 36689  98.4796 227.8431 0313153 334.7216  23.8887 13.74189275580169"}}, "geometry": {"type": "Point", "coordinates": [70.21131911978405, 39.988213963372125]}}, {"type": "Feature", "properties": {"norad_id": 36691, "name": "FENGYUN 1C DEB", "group": "fengyun-1c-debris", "lat": -64.42733591115615, "lon": 8.006100666704972, "alt_km": 837.8440370435192, "timestamp": "2025-12-15T11:38:37.442063+00:00", "meta": {"OBJECT_NAME": "FENGYUN 1C DEB", "OBJECT_ID": "1999-025DZM", "EPOCH": "2025-12-08T17:50:07.073952", "MEAN_MOTION": 14.07105067, "ECCENTRICITY": 0.01290803, "INCLINATION": 98.6374, "RA_OF_ASC_NODE": 343.0423, "ARG_OF_PERICENTER": 246.8073, "MEAN_ANOMALY": 111.9457, "EPHEMERIS_TYPE": 0, "CLASSIFICATION_TYPE": "U", "NORAD_CAT_ID": 36691, "ELEMENT_SET_NO": 999, "REV_AT_EPOCH": 59553, "BSTAR": 0.0032098608, "MEAN_MOTION_DOT": 5.753e-05, "MEAN_MOTION_DDOT": 0}, "tle": {"line1": "1 36691U 99025DZM 25342.74313743  .00005753  00000+0  32099-2 0  9992", "line2": "2 36691  98.6374 343.0423 0129080 246.8073 111.9457 14.07105067595539"}}, "geometry": {"type": "Point", "coordinates": [8.006100666704972, -64.42733591115615]}}, {"type": "Feature", "properties": {"norad_id": 36692, "name": "FENGYUN 1C DEB", "group": "fengyun-1c-debris", "lat": 18.59837461993984, "lon": 79.17163267490987, "alt_km": 993.0850098979463, "timestamp": "2025-12-15T11:38:37.442073+00:00", "meta": {"OBJECT_NAME": "FENGYUN 1C DEB", "OBJECT_ID": "1999-025DZN", "EPOCH": "2025-12-04T12:56:52.897632", "MEAN_MOTION": 13.93448865, "ECCENTRICITY": 0.0115856, "INCLINATION": 99.9932, "RA_OF_ASC_NODE": 243.9547, "ARG_OF_PERICENTER": 34.8482, "MEAN_ANOMALY": 326.0192, "EPHEMERIS_TYPE": 0, "CLASSIFICATION_TYPE": "U", "NORAD_CAT_ID": 36692, "ELEMENT_SET_NO": 999, "REV_AT_EPOCH": 59691, "BSTAR": 0.0009556, "MEAN_MOTION_DOT": 1.272e-05, "MEAN_MOTION_DDOT": 0}, "tle": {"line1": "1 36692U 99025DZN 25338.53950113  .00001272  00000+0  95560-3 0  9998", "line2": "2 36692  99.9932 243.9547 0115856  34.8482 326.0192 13.93448865596912"}}, "geometry": {"type": "Point", "coordinates": [79.17163267490987, 18.59837461993984]}}, {"type": "Feature", "properties": {"norad_id": 36695, "name": "FENGYUN 1C DEB", "group": "fengyun-1c-debris", "lat": 2.5581206797764855, "lon": 151.101522960741, "alt_km": 641.0409519057512, "timestamp": "2025-12-15T11:38:37.442083+00:00", "meta": {"OBJECT_NAME": "FENGYUN 1C DEB", "OBJECT_ID": "1999-025DZR", "EPOCH": "2025-12-14T04:54:28.101024", "MEAN_MOTION": 14.43749357, "ECCENTRICITY": 0.02574906, "INCLINATION": 98.2215, "RA_OF_ASC_NODE": 329.4928, "ARG_OF_PERICENTER": 125.9312, "MEAN_ANOMALY": 236.6068, "EPHEMERIS_TYPE": 0, "CLASSIFICATION_TYPE": "U", "NORAD_CAT_ID": 36695, "ELEMENT_SET_NO": 999, "REV_AT_EPOCH": 89589, "BSTAR": 0.00021662776, "MEAN_MOTION_DOT": 1.052e-05, "MEAN_MOTION_DDOT": 0}, "tle": {"line1": "1 36695U 99025DZR 25348.20449191  .00001052  00000+0  21663-3 0  9994", "line2": "2 36695  98.2215 329.4928 0257490 125.9312 236.6068 14.43749357895892"}}, "geometry": {"type": "Point", "coordinates": [151.101522960741, 2.5581206797764855]}}, {"type": "Feature", "properties": {"norad_id": 36696, "name": "FENGYUN 1C DEB", "group": "fengyun-1c-debris", "lat": 18.509289435790464, "lon": -4.4296563049601545, "alt_km": 752.4868503010466, "timestamp": "2025-12-15T11:38:37.442093+00:00", "meta": {"OBJECT_NAME": "FENGYUN 1C DEB", "OBJECT_ID": "1999-025DZS", "EPOCH": "2025-12-12T23:29:27.613248", "MEAN_MOTION": 14.39206881, "ECCENTRICITY": 0.00228959, "INCLINATION": 98.9916, "RA_OF_ASC_NODE": 355.9822, "ARG_OF_PERICENTER": 328.4138, "MEAN_ANOMALY": 31.5673, "EPHEMERIS_TYPE": 0, "CLASSIFICATION_TYPE": "U", "NORAD_CAT_ID": 36696, "ELEMENT_SET_NO": 999, "REV_AT_EPOCH": 64399, "BSTAR": 0.0029501232, "MEAN_MOTION_DOT": 9.135e-05, "MEAN_MOTION_DDOT": 0}, "tle": {"line1": "1 36696U 99025DZS 25346.97879182  .00009135  00000+0  29501-2 0  9992", "line2": "2 36696  98.9916 355.9822 0022895 328.4138  31.5673 14.39206881643991"}}, "geometry": {"type": "Point", "coordinates": [-4.4296563049601545, 18.509289435790464]}}, {"type": "Feature", "properties": {"norad_id": 36699, "name": "FENGYUN 1C DEB", "group": "fengyun-1c-debris", "lat": -80.86412400071593, "lon": 94.44915591008979, "alt_km": 873.4893493890586, "timestamp": "2025-12-15T11:38:37.442102+00:00", "meta": {"OBJECT_NAME": "FENGYUN 1C DEB", "OBJECT_ID": "1999-025DZV", "EPOCH": "2025-12-14T17:32:30.984288", "MEAN_MOTION": 14.24295961, "ECCENTRICITY": 0.00947007, "INCLINATION": 98.559, "RA_OF_ASC_NODE": 343.1819, "ARG_OF_PERICENTER": 124.3807, "MEAN_ANOMALY": 236.6374, "EPHEMERIS_TYPE": 0, "CLASSIFICATION_TYPE": "U", "NORAD_CAT_ID": 36699, "ELEMENT_SET_NO": 999, "REV_AT_EPOCH": 73355, "BSTAR": 0.00027457557, "MEAN_MOTION_DOT": 6.22e-06, "MEAN_MOTION_DDOT": 0}, "tle": {"line1": "1 36699U 99025DZV 25348.73091417  .00000622  00000+0  27458-3 0  9990", "line2": "2 36699  98.5590 343.1819 0094700 124.3807 236.6374 14.24295961733552"}}, "geometry": {"type": "Point", "coordinates": [94.44915591008979, -80.86412400071593]}}, {"type": "Feature", "properties": {"norad_id": 36701, "name": "FENGYUN 1C DEB", "group": "fengyun-1c-debris", "lat": 58.41570716325281, "lon": -76.88399368266931, "alt_km": 1178.980286616692, "timestamp": "2025-12-15T11:38:37.442112+00:00", "meta": {"OBJECT_NAME": "FENGYUN 1C DEB", "OBJECT_ID": "1999-025DZX", "EPOCH": "2025-12-14T14:19:30.321408", "MEAN_MOTION": 13.7134103, "ECCENTRICITY": 0.0259455, "INCLINATION": 102.7461, "RA_OF_ASC_NODE": 303.5412, "ARG_OF_PERICENTER": 249.2797, "MEAN_ANOMALY": 108.0354, "EPHEMERIS_TYPE": 0, "CLASSIFICATION_TYPE": "U", "NORAD_CAT_ID": 36701, "ELEMENT_SET_NO": 999, "REV_AT_EPOCH": 61164, "BSTAR": 0.0022054659, "MEAN_MOTION_DOT": 2.445e-05, "MEAN_MOTION_DDOT": 0}, "tle": {"line1": "1 36701U 99025DZX 25348.59687872  .00002445  00000+0  22055-2 0  9996", "line2": "2 36701 102.7461 303.5412 0259455 249.2797 108.0354 13.71341030611640"}}, "geometry": {"type": "Point", "coordinates": [-76.88399368266931, 58.41570716325281]}}]}